{
  "type": "FeatureCollection",
  "features": [
    {
      "type": "Feature",
      "properties": {
        "norad_id": 29760,
        "name": "FENGYUN 1C DEB",
        "group": "fengyun-1c-debris",
        "lat": -54.80493760569972,
        "lon": -7.003653784435566,
        "alt_km": 896.9789865270914,
        "timestamp": "2025-12-03T22:42:32.906729+00:00",
        "meta_object_name": "FENGYUN 1C DEB",
        "meta_object_id": "1999-025BA",
        "meta_epoch": "2025-12-03T11:02:30.734016",
        "meta_mean_motion": 14.08278893,
        "meta_eccentricity": 0.0130381,
        "meta_inclination": 98.7623,
        "meta_ra_of_asc_node": 339.8928,
        "meta_arg_of_pericenter": 199.7696,
        "meta_mean_anomaly": 159.8394,
        "meta_ephemeris_type": 0,
        "meta_classification_type": "U",
        "meta_norad_cat_id": 29760,
        "meta_element_set_no": 999,
        "meta_rev_at_epoch": 96962,
        "meta_bstar": 0.00024046,
        "meta_mean_motion_dot": 4.01e-06,
        "meta_mean_motion_ddot": 0,
        "tle_line1": "1 29760U 99025BA  25337.46007794  .00000401  00000+0  24046-3 0  9999",
        "tle_line2": "2 29760  98.7623 339.8928 0130381 199.7696 159.8394 14.08278893969627"
      },
      "geometry": {
        "type": "Point",
        "coordinates": [
          -7.003653784435566,
          -54.80493760569972
        ]
      }
    },
    {
      "type": "Feature",
      "properties": {
        "norad_id": 29762,
        "name": "FENGYUN 1C DEB",
        "group": "fengyun-1c-debris",
        "lat": 2.2186897682045386,
        "lon": 141.2982402083126,
        "alt_km": 966.3139952434667,
        "timestamp": "2025-12-03T22:42:32.906738+00:00",
        "meta_object_name": "FENGYUN 1C DEB",
        "meta_object_id": "1999-025BC",
        "meta_epoch": "2025-12-03T10:45:58.031712",
        "meta_mean_motion": 14.22546264,
        "meta_eccentricity": 0.0204599,
        "meta_inclination": 98.5783,
        "meta_ra_of_asc_node": 320.4784,
        "meta_arg_of_pericenter": 2.66,
        "meta_mean_anomaly": 147.8515,
        "meta_ephemeris_type": 0,
        "meta_classification_type": "U",
        "meta_norad_cat_id": 29762,
        "meta_element_set_no": 999,
        "meta_rev_at_epoch": 97816,
        "meta_bstar": 0.00060342,
        "meta_mean_motion_dot": 1.623e-05,
        "meta_mean_motion_ddot": 0,
        "tle_line1": "1 29762U 99025BC  25337.44858833  .00001623  00000+0  60342-3 0  9993",
        "tle_line2": "2 29762  98.5783 320.4784 0204599   2.6600 147.8515 14.22546264978167"
      },
      "geometry": {
        "type": "Point",
        "coordinates": [
          141.2982402083126,
          2.2186897682045386
        ]
      }
    },
    {
      "type": "Feature",
      "properties": {
        "norad_id": 29763,
        "name": "FENGYUN 1C DEB",
        "group": "fengyun-1c-debris",
        "lat": 33.72390157961199,
        "lon": 143.5200096066655,
        "alt_km": 817.1485853430759,
        "timestamp": "2025-12-03T22:42:32.906748+00:00",
        "meta_object_name": "FENGYUN 1C DEB",
        "meta_object_id": "1999-025BD",
        "meta_epoch": "2025-12-02T22:23:50.635680",
        "meta_mean_motion": 14.07866886,
        "meta_eccentricity": 0.01269688,
        "meta_inclination": 98.7601,
        "meta_ra_of_asc_node": 316.6293,
        "meta_arg_of_pericenter": 208.2466,
        "meta_mean_anomaly": 207.4354,
        "meta_ephemeris_type": 0,
        "meta_classification_type": "U",
        "meta_norad_cat_id": 29763,
        "meta_element_set_no": 999,
        "meta_rev_at_epoch": 96912,
        "meta_bstar": 0.00015763978,
        "meta_mean_motion_dot": 2.45e-06,
        "meta_mean_motion_ddot": 0,
        "tle_line1": "1 29763U 99025BD  25336.93322495  .00000245  00000+0  15764-3 0  9994",
        "tle_line2": "2 29763  98.7601 316.6293 0126968 208.2466 207.4354 14.07866886969126"
      },
      "geometry": {
        "type": "Point",
        "coordinates": [
          143.5200096066655,
          33.72390157961199
        ]
      }
    },
    {
      "type": "Feature",
      "properties": {
        "norad_id": 29765,
        "name": "FENGYUN 1C DEB",
        "group": "fengyun-1c-debris",
        "lat": -31.08932725620755,
        "lon": 171.0283161931884,
        "alt_km": 895.3971440214591,
        "timestamp": "2025-12-03T22:42:32.906758+00:00",
        "meta_object_name": "FENGYUN 1C DEB",
        "meta_object_id": "1999-025BF",
        "meta_epoch": "2025-12-03T08:05:03.172128",
        "meta_mean_motion": 14.02148175,
        "meta_eccentricity": 0.0059547,
        "meta_inclination": 98.831,
        "meta_ra_of_asc_node": 355.8168,
        "meta_arg_of_pericenter": 118.6627,
        "meta_mean_anomaly": 257.8079,
        "meta_ephemeris_type": 0,
        "meta_classification_type": "U",
        "meta_norad_cat_id": 29765,
        "meta_element_set_no": 999,
        "meta_rev_at_epoch": 96619,
        "meta_bstar": 0.00026417,
        "meta_mean_motion_dot": 3.68e-06,
        "meta_mean_motion_ddot": 0,
        "tle_line1": "1 29765U 99025BF  25337.33684227  .00000368  00000+0  26417-3 0  9998",
        "tle_line2": "2 29765  98.8310 355.8168 0059547 118.6627 257.8079 14.02148175966199"
      },
      "geometry": {
        "type": "Point",
        "coordinates": [
          171.0283161931884,
          -31.08932725620755
        ]
      }
    },
    {
      "type": "Feature",
      "properties": {
        "norad_id": 29766,
        "name": "FENGYUN 1C DEB",
        "group": "fengyun-1c-debris",
        "lat": 18.01654385121672,
        "lon": 110.90646919057917,
        "alt_km": 997.7533744695347,
        "timestamp": "2025-12-03T22:42:32.906767+00:00",
        "meta_object_name": "FENGYUN 1C DEB",
        "meta_object_id": "1999-025BG",
        "meta_epoch": "2025-12-03T03:06:03.584160",
        "meta_mean_motion": 13.9697868,
        "meta_eccentricity": 0.01469748,
        "meta_inclination": 98.6834,
        "meta_ra_of_asc_node": 287.2856,
        "meta_arg_of_pericenter": 314.8867,
        "meta_mean_anomaly": 61.0357,
        "meta_ephemeris_type": 0,
        "meta_classification_type": "U",
        "meta_norad_cat_id": 29766,
        "meta_element_set_no": 999,
        "meta_rev_at_epoch": 95670,
        "meta_bstar": 0.0020961621,
        "meta_mean_motion_dot": 3.16e-05,
        "meta_mean_motion_ddot": 0,
        "tle_line1": "1 29766U 99025BG  25337.12920815  .00003160  00000+0  20962-2 0  9993",
        "tle_line2": "2 29766  98.6834 287.2856 0146974 314.8867  61.0357 13.96978680956702"
      },
      "geometry": {
        "type": "Point",
        "coordinates": [
          110.90646919057917,
          18.01654385121672
        ]
      }
    },
    {
      "type": "Feature",
      "properties": {
        "norad_id": 29767,
        "name": "FENGYUN 1C DEB",
        "group": "fengyun-1c-debris",
        "lat": -38.27383736287148,
        "lon": 120.96022318589317,
        "alt_km": 1047.7840573070916,
        "timestamp": "2025-12-03T22:42:32.906777+00:00",
        "meta_object_name": "FENGYUN 1C DEB",
        "meta_object_id": "1999-025BH",
        "meta_epoch": "2025-12-03T04:39:08.186400",
        "meta_mean_motion": 14.03198913,
        "meta_eccentricity": 0.03330716,
        "meta_inclination": 98.1983,
        "meta_ra_of_asc_node": 306.8119,
        "meta_arg_of_pericenter": 88.3622,
        "meta_mean_anomaly": 288.9446,
        "meta_ephemeris_type": 0,
        "meta_classification_type": "U",
        "meta_norad_cat_id": 29767,
        "meta_element_set_no": 999,
        "meta_rev_at_epoch": 95466,
        "meta_bstar": 0.0022745681,
        "meta_mean_motion_dot": 5.764e-05,
        "meta_mean_motion_ddot": 0,
        "tle_line1": "1 29767U 99025BH  25337.19384475  .00005764  00000+0  22746-2 0  9991",
        "tle_line2": "2 29767  98.1983 306.8119 0333071  88.3622 288.9446 14.03198913954665"
      },
      "geometry": {
        "type": "Point",
        "coordinates": [
          120.96022318589317,
          -38.27383736287148
        ]
      }
    },
    {
      "type": "Feature",
      "properties": {
        "norad_id": 29769,
        "name": "FENGYUN 1C DEB",
        "group": "fengyun-1c-debris",
        "lat": -54.134967768904474,
        "lon": 47.88984493032144,
        "alt_km": 913.3541702350449,
        "timestamp": "2025-12-03T22:42:32.906786+00:00",
        "meta_object_name": "FENGYUN 1C DEB",
        "meta_object_id": "1999-025BK",
        "meta_epoch": "2025-12-02T16:23:36.839328",
        "meta_mean_motion": 14.1344001,
        "meta_eccentricity": 0.00941574,
        "meta_inclination": 99.1074,
        "meta_ra_of_asc_node": 33.7848,
        "meta_arg_of_pericenter": 158.4055,
        "meta_mean_anomaly": 202.1129,
        "meta_ephemeris_type": 0,
        "meta_classification_type": "U",
        "meta_norad_cat_id": 29769,
        "meta_element_set_no": 999,
        "meta_rev_at_epoch": 96539,
        "meta_bstar": 0.0018821587,
        "meta_mean_motion_dot": 3.647e-05,
        "meta_mean_motion_ddot": 0,
        "tle_line1": "1 29769U 99025BK  25336.68306527  .00003647  00000+0  18822-2 0  9996",
        "tle_line2": "2 29769  99.1074  33.7848 0094157 158.4055 202.1129 14.13440010965399"
      },
      "geometry": {
        "type": "Point",
        "coordinates": [
          47.88984493032144,
          -54.134967768904474
        ]
      }
    }
  ]
}